SARSAT 7 (NOAA 15)      
1 25338U 98030A   24192.52178772  .00000305  00000+0  14412-3 0  9990
2 25338  98.5673 219.1604 0009121 254.4789 105.5385 14.26623576360767
GPS BIIR-08             
1 27663U 03005A   24190.85975703  .00000011  00000+0  00000+0 0  9992
2 27663  55.0964 243.1333 0136368  47.4082 120.5447  2.00573659157100
GPS BIIR-11             
1 28190U 04009A   24191.90743837 -.00000075  00000+0  00000+0 0  9992
2 28190  55.4342 304.1332 0098377 149.3948 213.1222  2.00558770148766
GPS BIIR-13             
1 28474U 04045A   24192.09753545 -.00000101  00000+0  00000+0 0  9995
2 28474  55.4238 353.2932 0161862 293.0170 252.3041  2.00561565144238
SARSAT 10 (NOAA 18)     
1 28654U 05018A   24192.50086782  .00000291  00000+0  17901-3 0  9995
2 28654  98.8742 269.2725 0014032   1.9619 358.1606 14.13249220986554
GPS BIIR-14M            
1 28874U 05038A   24191.35630546 -.00000071  00000+0  00000+0 0  9991
2 28874  55.4805 301.6174 0136426 284.2585  64.0078  2.00553978137630
METEOSAT-9 (MSG-2)      
1 28912U 05049B   24191.70575736  .00000123  00000+0  00000+0 0  9991
2 28912   7.7369  60.6828 0001850 359.1994 167.9765  1.00274817 67958
GOES 13                 
1 29155U 06018A   24192.51006514 -.00000268  00000+0  00000+0 0  9992
2 29155   2.6856  85.0294 0077968 255.7565 265.3173  0.99060382 66399
GPS BIIR-16M            
1 29601U 06052A   24190.93735076  .00000012  00000+0  00000+0 0  9998
2 29601  55.1273 242.1092 0084562  83.3163 277.7263  2.00569105129208
GPS BIIR-17M            
1 32260U 07047A   24191.73810866 -.00000015  00000+0  00000+0 0  9992
2 32260  53.6176 109.3158 0156173  75.7707 285.9668  2.00562908122647
GPS BIIR-18M            
1 32384U 07062A   24192.57346802 -.00000074  00000+0  00000+0 0  9998
2 32384  55.6193 302.4346 0028913 153.3266 219.0604  2.00576250121409
SARSAT 12 (NOAA 19)     
1 33591U 09005A   24192.45557530  .00000260  00000+0  16387-3 0  9992
2 33591  99.0459 248.4998 0013161 223.2825 136.7313 14.13043974794919
GOES 14                 
1 35491U 09033A   24191.60345566 -.00000066  00000+0  00000+0 0  9990
2 35491   0.3914 101.9585 0003683   7.0435 287.7541  1.00272753 55011
GOES 15                 
1 36411U 10008A   24192.49588851  .00000043  00000+0  00000+0 0  9995
2 36411   0.3636  89.0177 0002970 106.2040 333.3444  1.00271757 52548
GSAT0101 (GALILEO-PFM)  
1 37846U 11060A   24188.49395918 -.00000101  00000+0  00000+0 0  9998
2 37846  57.1296   1.0112 0003170  56.3380 303.6973  1.70475955 79001
GSAT0102 (GALILEO-FM2)  
1 37847U 11060B   24192.23180782 -.00000094  00000+0  00000+0 0  9998
2 37847  57.1305   0.9103 0002501  16.1378 163.5394  1.70475534 79192
LUCH 5A                 
1 37951U 11074B   24191.61681218 -.00000050  00000+0  00000+0 0  9992
2 37951   6.9416  84.6243 0003936  28.0362 204.4095  1.00274832 45956
METEOSAT-10 (MSG-3)     
1 38552U 12035B   24192.12591966 -.00000006  00000+0  00000+0 0  9996
2 38552   3.0158  61.1571 0000391 298.2016 334.4986  1.00271552 44125
SARSAT 13 (METOP-B)     
1 38771U 12049A   24192.47227496  .00000200  00000+0  11137-3 0  9998
2 38771  98.6267 249.1713 0001341  82.1436 277.9894 14.21451045612851
GPS BIIF-3              
1 38833U 12053A   24192.33390281  .00000051  00000+0  00000+0 0  9997
2 38833  53.5193 172.5235 0152929  56.0712 305.3490  2.00559102 86155
GSAT0103 (GALILEO-FM3)  
1 38857U 12055A   24190.29294086 -.00000014  00000+0  00000+0 0  9994
2 38857  55.4130 121.0254 0004629 279.5922  80.3296  1.70473707 73063
GPS BIIF-4              
1 39166U 13023A   24190.20238906 -.00000064  00000+0  00000+0 0  9999
2 39166  55.0939 297.7357 0123796  45.0142 316.0094  2.00562791 81668
INSAT-3D                
1 39216U 13038B   24191.78453534 -.00000325  00000+0  00000+0 0  9991
2 39216   0.0931  96.7677 0000819  82.1719 129.0656  1.00570028 39985
GPS BIIF-5              
1 39533U 14008A   24192.19653746  .00000051  00000+0  00000+0 0  9999
2 39533  53.6019 178.1297 0073381 221.0391 138.3907  2.00569898 76050
LUCH 5V                 
1 39727U 14023A   24191.85049524 -.00000269  00000+0  00000+0 0  9998
2 39727   3.3521  75.8949 0001994  86.0755 167.1771  1.00275176 37267
GPS BIIF-6              
1 39741U 14026A   24191.97565303 -.00000099  00000+0  00000+0 0  9999
2 39741  56.7097 358.9849 0030876 316.2561  43.5070  2.00566858 74341
GPS BIIF-7              
1 40105U 14045A   24192.06881647 -.00000003  00000+0  00000+0 0  9994
2 40105  54.9398 116.6945 0026352 114.8022 245.4722  2.00568012 72782
GSAT0201 (GALILEO 5)    
1 40128U 14050A   24191.18609220 -.00000094  00000+0  00000+0 0  9992
2 40128  49.6368 302.1806 1612130 152.1181 217.5779  1.85519607 65186
GSAT0202 (GALILEO 6)    
1 40129U 14050B   24191.44430553 -.00000093  00000+0  00000+0 0  9992
2 40129  49.6537 301.2472 1610997 152.9275 216.5115  1.85520230 67353
GPS BIIF-8              
1 40294U 14068A   24190.94507935 -.00000066  00000+0  00000+0 0  9997
2 40294  56.4392  58.3912 0054529  63.0315 297.5921  2.00561263 70985
GLONASS-K 2             
1 40315U 14075A   24192.12692290  .00000050  00000+0  00000+0 0  9992
2 40315  63.6221 214.8784 0021024 211.4635 148.4617  2.13101555 74780
GPS BIIF-9              
1 40534U 15013A   24191.57405043  .00000017  00000+0  00000+0 0  9997
2 40534  53.3366 233.4696 0088156  29.7532 330.8179  2.00564267 68055
GSAT0203 (GALILEO 7)    
1 40544U 15017A   24191.79268287 -.00000095  00000+0  00000+0 0  9990
2 40544  56.9253   0.8530 0001720 242.4123 117.5742  1.70476230 57147
GSAT0204 (GALILEO 8)    
1 40545U 15017B   24191.46034597 -.00000096  00000+0  00000+0 0  9991
2 40545  56.9311   0.8776 0002080 209.7332 150.2587  1.70475834 20187
GPS BIIF-10             
1 40730U 15033A   24190.73875290 -.00000064  00000+0  00000+0 0  9992
2 40730  54.5766 296.1767 0094087  19.7771 340.6172  2.00565967 65809
METEOSAT-11 (MSG-4)     
1 40732U 15034A   24191.77003884  .00000062  00000+0  00000+0 0  9999
2 40732   1.4386  69.6025 0001133 162.6314 342.3765  1.00269827   138
GSAT0205 (GALILEO 9)    
1 40889U 15045A   24190.05539377  .00000027  00000+0  00000+0 0  9996
2 40889  55.2080 241.1936 0002675   2.1362 357.9567  1.70473708 54920
GSAT0206 (GALILEO 10)   
1 40890U 15045B   24189.10288720  .00000030  00000+0  00000+0 0  9999
2 40890  55.2073 241.2153 0001167 354.8047   5.2893  1.70473934 54935
GPS BIIF-11             
1 41019U 15062A   24191.29676109 -.00000067  00000+0  00000+0 0  9998
2 41019  56.4198  58.2307 0095598 224.7842 134.5047  2.00562765 63635
ELEKTRO-L 2             
1 41105U 15074A   24192.46657491 -.00000115  00000+0  00000+0 0  9994
2 41105   4.8998  79.1976 0001157 144.6430 218.4702  1.00270865 31430
GSAT0209 (GALILEO 12)   
1 41174U 15079A   24188.68595814 -.00000023  00000+0  00000+0 0  9992
2 41174  55.4334 120.7795 0004681 322.8191  37.1117  1.70473923 52664
GSAT0208 (GALILEO 11)   
1 41175U 15079B   24190.07890340 -.00000015  00000+0  00000+0 0  9992
2 41175  55.4324 120.7390 0004233 321.1838  38.7589  1.70473972 53102
GPS BIIF-12             
1 41328U 16007A   24190.37999120 -.00000013  00000+0  00000+0 0  9991
2 41328  55.1337 117.6090 0079946 238.9585 120.2457  2.00560917 61629
GSAT0211 (GALILEO 14)   
1 41549U 16030A   24191.37490544  .00000027  00000+0  00000+0 0  9993
2 41549  55.3547 241.1661 0003340 301.4454  58.6083  1.70473849 50600
GSAT0210 (GALILEO 13)   
1 41550U 16030B   24184.04059950  .00000038  00000+0  00000+0 0  9995
2 41550  55.3575 241.3690 0003090 263.9154  96.1363  1.70473957 50459
INSAT-3DR               
1 41752U 16054A   24190.49483889 -.00000079  00000+0  00000+0 0  9999
2 41752   0.0622  91.3144 0010521 174.9496 272.7889  1.00271687 28692
GSAT0207 (GALILEO 15)   
1 41859U 16069A   24190.15276661 -.00000015  00000+0  00000+0 0  9994
2 41859  55.0986 120.7355 0004661 310.6564  49.2765  1.70473917 47314
GSAT0212 (GALILEO 16)   
1 41860U 16069B   24189.42043311 -.00000019  00000+0  00000+0 0  9992
2 41860  55.0956 120.7521 0003837 335.1806  24.7690  1.70474109 47558
GSAT0213 (GALILEO 17)   
1 41861U 16069C   24192.13540755 -.00000006  00000+0  00000+0 0  9995
2 41861  55.0993 120.6836 0003911 291.1197  68.8247  1.70472636 47599
GSAT0214 (GALILEO 18)   
1 41862U 16069D   24191.69395005 -.00000008  00000+0  00000+0 0  9994
2 41862  55.0978 120.6894 0003934 294.8224  65.1204  1.70474175 47585
GOES 16                 
1 41866U 16071A   24190.75135017 -.00000250  00000+0  00000+0 0  9991
2 41866   0.0760 248.8039 0000215 201.1579  32.4914  1.00272671 28006
GSAT-17                 
1 42815U 17040B   24191.88521545 -.00000257  00000+0  00000+0 0  9990
2 42815   0.0707  99.3691 0001552 148.8451  92.2406  1.00272838 25693
GSAT0215 (GALILEO 19)   
1 43055U 17079A   24189.83728242  .00000028  00000+0  00000+0 0  9999
2 43055  55.3325 241.0299 0003115 255.6102 104.4478  1.70474627 40897
GSAT0216 (GALILEO 20)   
1 43056U 17079B   24188.36923443  .00000033  00000+0  00000+0 0  9993
2 43056  55.3327 241.0700 0004728 266.8574  93.1855  1.70474438 40887
GSAT0217 (GALILEO 21)   
1 43057U 17079C   24192.10916998  .00000028  00000+0  00000+0 0  9992
2 43057  55.3332 240.9658 0003056 281.2990  78.7500  1.70474404 40935
GSAT0218 (GALILEO 22)   
1 43058U 17079D   24190.56949010  .00000027  00000+0  00000+0 0  9991
2 43058  55.3309 241.0058 0004527 265.3393  94.6986  1.70474716 40908
GOES 17                 
1 43226U 18022A   24192.42132812 -.00000087  00000+0  00000+0 0  9995
2 43226   0.0187 207.0981 0000983 312.5389 176.1459  1.00270947 23348
GSAT0221 (GALILEO 25)   
1 43564U 18060A   24191.05691246 -.00000097  00000+0  00000+0 0  9992
2 43564  57.3048   0.8787 0001940 289.7408  70.2415  1.70476048 37098
GSAT0222 (GALILEO 26)   
1 43565U 18060B   24191.27546789 -.00000096  00000+0  00000+0 0  9997
2 43565  57.3086   0.8749 0001872 215.5763 144.4147  1.70475827 37140
GSAT0219 (GALILEO 23)   
1 43566U 18060C   24190.32414145 -.00000098  00000+0  00000+0 0  9995
2 43566  57.3083   0.9023 0001271 314.4885  45.5042  1.70476080 37104
